start=new Date('2021-10-09T00:00:00.000Z').valueOf();
sats=[{"BSTAR":"-0.00007269800000","ECCENTRICITY":"0.00065440","OBJECT_ID":"2020-012AH","CLASSIFICATION_TYPE":"U","MEAN_MOTION_DOT":"-0.00009398","PERIOD":"91.738","ARG_OF_PERICENTER":"8.9796","OBJECT_NAME":"STARLINK-1218","APOAPSIS":"364.207","REF_FRAME":"TEME","NORAD_CAT_ID":"45209","EPHEMERIS_TYPE":"0","CENTER_NAME":"EARTH","MEAN_ANOMALY":"351.1336","ELEMENT_SET_NO":"999","TIME_SYSTEM":"UTC","SITE":"AFETR","TLE_LINE2":"2 45209  53.0556  18.2982 0006544   8.9796 351.1336 15.69685811 91769","RCS_SIZE":"LARGE","PERIAPSIS":"355.389","TLE_LINE1":"1 45209U 20012AH  21281.86222383 -.00009398  00000-0 -72698-4 0  9990","MEAN_ELEMENT_THEORY":"SGP4","FILE":"3151658","SEMIMAJOR_AXIS":"6737.933","MEAN_MOTION_DDOT":"0.0000000000000","REV_AT_EPOCH":"9176","LAUNCH_DATE":"2020-02-17","INCLINATION":"53.0556","GP_ID":"186566274","EPOCH":"2021-10-08T20:41:36.138912","DECAY_DATE":null,"OBJECT_TYPE":"PAYLOAD","COUNTRY_CODE":"US","RA_OF_ASC_NODE":"18.2982","MEAN_MOTION":"15.69685811"},{"GP_ID":"186594709","INCLINATION":"53.0546","DECAY_DATE":null,"EPOCH":"2021-10-08T17:10:45.008544","REV_AT_EPOCH":"9189","MEAN_MOTION_DDOT":"0.0000000000000","LAUNCH_DATE":"2020-02-17","COUNTRY_CODE":"US","RA_OF_ASC_NODE":"67.5486","MEAN_MOTION":"15.06391120","OBJECT_TYPE":"PAYLOAD","TLE_LINE2":"2 45210  53.0546  67.5486 0001695  97.7289 262.3893 15.06391120 91894","SITE":"AFETR","TLE_LINE1":"1 45210U 20012AJ  21281.71579871 -.00000088  00000-0  12981-4 0  9998","PERIAPSIS":"546.067","RCS_SIZE":"LARGE","SEMIMAJOR_AXIS":"6925.376","MEAN_ELEMENT_THEORY":"SGP4","FILE":"3152020","CENTER_NAME":"EARTH","EPHEMERIS_TYPE":"0","TIME_SYSTEM":"UTC","ELEMENT_SET_NO":"999","MEAN_ANOMALY":"262.3893","CLASSIFICATION_TYPE":"U","ECCENTRICITY":"0.00016950","BSTAR":"0.00001298100000","OBJECT_ID":"2020-012AJ","APOAPSIS":"548.415","OBJECT_NAME":"STARLINK-1219","REF_FRAME":"TEME","NORAD_CAT_ID":"45210","MEAN_MOTION_DOT":"-0.00000088","PERIOD":"95.593","ARG_OF_PERICENTER":"97.7289"},{"REF_FRAME":"TEME","NORAD_CAT_ID":"45212","OBJECT_NAME":"STARLINK-1231","APOAPSIS":"548.404","ARG_OF_PERICENTER":"90.8020","PERIOD":"95.592","MEAN_MOTION_DOT":"0.00000955","CLASSIFICATION_TYPE":"U","OBJECT_ID":"2020-012AL","BSTAR":"0.00008299500000","ECCENTRICITY":"0.00017060","ELEMENT_SET_NO":"999","TIME_SYSTEM":"UTC","MEAN_ANOMALY":"269.3165","EPHEMERIS_TYPE":"0","CENTER_NAME":"EARTH","SEMIMAJOR_AXIS":"6925.358","FILE":"3151661","MEAN_ELEMENT_THEORY":"SGP4","PERIAPSIS":"546.041","RCS_SIZE":"LARGE","TLE_LINE1":"1 45212U 20012AL  21281.81532795  .00000955  00000-0  82995-4 0  9999","TLE_LINE2":"2 45212  53.0556  67.1018 0001706  90.8020 269.3165 15.06397052 91084","SITE":"AFETR","RA_OF_ASC_NODE":"67.1018","MEAN_MOTION":"15.06397052","COUNTRY_CODE":"US","OBJECT_TYPE":"PAYLOAD","EPOCH":"2021-10-08T19:34:04.334880","DECAY_DATE":null,"INCLINATION":"53.0556","GP_ID":"186566819","LAUNCH_DATE":"2020-02-17","MEAN_MOTION_DDOT":"0.0000000000000","REV_AT_EPOCH":"9108"},{"LAUNCH_DATE":"2020-02-17","REV_AT_EPOCH":"9201","MEAN_MOTION_DDOT":"0.0000000000000","DECAY_DATE":null,"EPOCH":"2021-10-08T18:12:29.609856","GP_ID":"186593708","INCLINATION":"53.0552","OBJECT_TYPE":"PAYLOAD","MEAN_MOTION":"15.05716302","RA_OF_ASC_NODE":"67.4211","COUNTRY_CODE":"US","TLE_LINE1":"1 45213U 20012AM  21281.75867604  .00007523  00000-0  53302-3 0  9990","PERIAPSIS":"548.325","RCS_SIZE":"LARGE","SITE":"AFETR","TLE_LINE2":"2 45213  53.0552  67.4211 0001422  87.4847 272.6305 15.05716302 92012","FILE":"3152020","MEAN_ELEMENT_THEORY":"SGP4","SEMIMAJOR_AXIS":"6927.445","CENTER_NAME":"EARTH","EPHEMERIS_TYPE":"0","MEAN_ANOMALY":"272.6305","TIME_SYSTEM":"UTC","ELEMENT_SET_NO":"999","OBJECT_ID":"2020-012AM","ECCENTRICITY":"0.00014220","BSTAR":"0.00053302000000","CLASSIFICATION_TYPE":"U","ARG_OF_PERICENTER":"87.4847","PERIOD":"95.636","MEAN_MOTION_DOT":"0.00007523","REF_FRAME":"TEME","NORAD_CAT_ID":"45213","APOAPSIS":"550.295","OBJECT_NAME":"STARLINK-1232"},{"FILE":"3152020","MEAN_ELEMENT_THEORY":"SGP4","SEMIMAJOR_AXIS":"6925.368","SITE":"AFETR","TLE_LINE2":"2 45214  53.0537  67.5073 0001884 103.7810 256.3389 15.06393644 92008","TLE_LINE1":"1 45214U 20012AN  21281.72317236  .00001695  00000-0  13270-3 0  9993","RCS_SIZE":"LARGE","PERIAPSIS":"545.928","OBJECT_TYPE":"PAYLOAD","COUNTRY_CODE":"US","MEAN_MOTION":"15.06393644","RA_OF_ASC_NODE":"67.5073","REV_AT_EPOCH":"9200","MEAN_MOTION_DDOT":"0.0000000000000","LAUNCH_DATE":"2020-02-17","GP_ID":"186593958","INCLINATION":"53.0537","DECAY_DATE":null,"EPOCH":"2021-10-08T17:21:22.091904","MEAN_MOTION_DOT":"0.00001695","ARG_OF_PERICENTER":"103.7810","PERIOD":"95.593","APOAPSIS":"548.538","OBJECT_NAME":"STARLINK-1233","REF_FRAME":"TEME","NORAD_CAT_ID":"45214","ECCENTRICITY":"0.00018840","BSTAR":"0.00013270000000","OBJECT_ID":"2020-012AN","CLASSIFICATION_TYPE":"U","MEAN_ANOMALY":"256.3389","TIME_SYSTEM":"UTC","ELEMENT_SET_NO":"999","CENTER_NAME":"EARTH","EPHEMERIS_TYPE":"0"},{"LAUNCH_DATE":"2020-02-17","REV_AT_EPOCH":"9196","MEAN_MOTION_DDOT":"0.0000000000000","DECAY_DATE":null,"EPOCH":"2021-10-08T20:27:08.085024","GP_ID":"186594209","INCLINATION":"53.0541","OBJECT_TYPE":"PAYLOAD","MEAN_MOTION":"15.06398322","RA_OF_ASC_NODE":"66.9240","COUNTRY_CODE":"US","TLE_LINE1":"1 45215U 20012AP  21281.85217691 -.00001307  00000-0 -68874-4 0  9995","PERIAPSIS":"546.173","RCS_SIZE":"LARGE","SITE":"AFETR","TLE_LINE2":"2 45215  53.0541  66.9240 0001510  82.2618 277.8542 15.06398322 91967","FILE":"3152020","MEAN_ELEMENT_THEORY":"SGP4","SEMIMAJOR_AXIS":"6925.354","CENTER_NAME":"EARTH","EPHEMERIS_TYPE":"0","MEAN_ANOMALY":"277.8542","TIME_SYSTEM":"UTC","ELEMENT_SET_NO":"999","OBJECT_ID":"2020-012AP","ECCENTRICITY":"0.00015100","BSTAR":"-0.00006887400000","CLASSIFICATION_TYPE":"U","PERIOD":"95.592","ARG_OF_PERICENTER":"82.2618","MEAN_MOTION_DOT":"-0.00001307","REF_FRAME":"TEME","NORAD_CAT_ID":"45215","APOAPSIS":"548.264","OBJECT_NAME":"STARLINK-1245"},{"COUNTRY_CODE":"US","RA_OF_ASC_NODE":"54.7591","MEAN_MOTION":"15.71436450","OBJECT_TYPE":"PAYLOAD","INCLINATION":"53.0567","GP_ID":"186594456","EPOCH":"2021-10-08T21:02:14.456544","DECAY_DATE":null,"MEAN_MOTION_DDOT":"0.0000000000000","REV_AT_EPOCH":"9204","LAUNCH_DATE":"2020-02-17","SEMIMAJOR_AXIS":"6732.928","FILE":"3152020","MEAN_ELEMENT_THEORY":"SGP4","SITE":"AFETR","TLE_LINE2":"2 45216  53.0567  54.7591 0001263  21.1706 338.9363 15.71436450 92042","PERIAPSIS":"353.942","RCS_SIZE":"LARGE","TLE_LINE1":"1 45216U 20012AQ  21281.87655621  .00101967  00000-0  77803-3 0  9999","ELEMENT_SET_NO":"999","TIME_SYSTEM":"UTC","MEAN_ANOMALY":"338.9363","EPHEMERIS_TYPE":"0","CENTER_NAME":"EARTH","OBJECT_NAME":"STARLINK-1254","APOAPSIS":"355.643","REF_FRAME":"TEME","NORAD_CAT_ID":"45216","MEAN_MOTION_DOT":"0.00101967","PERIOD":"91.636","ARG_OF_PERICENTER":"21.1706","CLASSIFICATION_TYPE":"U","BSTAR":"0.00077803000000","ECCENTRICITY":"0.00012630","OBJECT_ID":"2020-012AQ"},{"ECCENTRICITY":"0.00015290","BSTAR":"-0.00004629900000","OBJECT_ID":"2020-012AR","CLASSIFICATION_TYPE":"U","MEAN_MOTION_DOT":"-0.00000971","PERIOD":"95.592","ARG_OF_PERICENTER":"101.9499","APOAPSIS":"548.285","OBJECT_NAME":"STARLINK-1271","NORAD_CAT_ID":"45217","REF_FRAME":"TEME","CENTER_NAME":"EARTH","EPHEMERIS_TYPE":"0","MEAN_ANOMALY":"258.1662","TIME_SYSTEM":"UTC","ELEMENT_SET_NO":"999","SITE":"AFETR","TLE_LINE2":"2 45217  53.0558  67.0455 0001529 101.9499 258.1662 15.06395862 91087","TLE_LINE1":"1 45217U 20012AR  21281.82637114 -.00000971  00000-0 -46299-4 0  9993","PERIAPSIS":"546.167","RCS_SIZE":"LARGE","FILE":"3151664","MEAN_ELEMENT_THEORY":"SGP4","SEMIMAJOR_AXIS":"6925.361","REV_AT_EPOCH":"9108","MEAN_MOTION_DDOT":"0.0000000000000","LAUNCH_DATE":"2020-02-17","GP_ID":"186566378","INCLINATION":"53.0558","DECAY_DATE":null,"EPOCH":"2021-10-08T19:49:58.466496","OBJECT_TYPE":"PAYLOAD","COUNTRY_CODE":"US","RA_OF_ASC_NODE":"67.0455","MEAN_MOTION":"15.06395862"},{"PERIOD":"95.592","ARG_OF_PERICENTER":"94.1697","MEAN_MOTION_DOT":"0.00001982","NORAD_CAT_ID":"45219","REF_FRAME":"TEME","OBJECT_NAME":"STARLINK-1187","APOAPSIS":"548.162","OBJECT_ID":"2020-012AT","BSTAR":"0.00015193000000","ECCENTRICITY":"0.00013610","CLASSIFICATION_TYPE":"U","MEAN_ANOMALY":"265.9448","ELEMENT_SET_NO":"999","TIME_SYSTEM":"UTC","EPHEMERIS_TYPE":"0","CENTER_NAME":"EARTH","MEAN_ELEMENT_THEORY":"SGP4","FILE":"3152020","SEMIMAJOR_AXIS":"6925.354","PERIAPSIS":"546.277","RCS_SIZE":"LARGE","TLE_LINE1":"1 45219U 20012AT  21281.75818915  .00001982  00000-0  15193-3 0  9996","TLE_LINE2":"2 45219  53.0549  47.3530 0001361  94.1697 265.9448 15.06398084 92304","SITE":"AFETR","OBJECT_TYPE":"PAYLOAD","RA_OF_ASC_NODE":"47.3530","MEAN_MOTION":"15.06398084","COUNTRY_CODE":"US","LAUNCH_DATE":"2020-02-17","MEAN_MOTION_DDOT":"0.0000000000000","REV_AT_EPOCH":"9230","EPOCH":"2021-10-08T18:11:47.542560","DECAY_DATE":null,"INCLINATION":"53.0549","GP_ID":"186593458"},{"MEAN_ELEMENT_THEORY":"SGP4","FILE":"3152020","SEMIMAJOR_AXIS":"6732.991","PERIAPSIS":"353.624","RCS_SIZE":"LARGE","TLE_LINE1":"1 45220U 20012AU  21281.81189646  .00009918  00000-0  80779-4 0  9997","TLE_LINE2":"2 45220  53.0533  28.3794 0001830  41.2821 318.8335 15.71414449 92458","SITE":"AFETR","OBJECT_TYPE":"PAYLOAD","RA_OF_ASC_NODE":"28.3794","MEAN_MOTION":"15.71414449","COUNTRY_CODE":"US","LAUNCH_DATE":"2020-02-17","MEAN_MOTION_DDOT":"0.0000000000000","REV_AT_EPOCH":"9245","EPOCH":"2021-10-08T19:29:07.854144","DECAY_DATE":null,"INCLINATION":"53.0533","GP_ID":"186594710","ARG_OF_PERICENTER":"41.2821","PERIOD":"91.637","MEAN_MOTION_DOT":"0.00009918","NORAD_CAT_ID":"45220","REF_FRAME":"TEME","OBJECT_NAME":"STARLINK-1188","APOAPSIS":"356.088","OBJECT_ID":"2020-012AU","BSTAR":"0.00008077900000","ECCENTRICITY":"0.00018300","CLASSIFICATION_TYPE":"U","MEAN_ANOMALY":"318.8335","ELEMENT_SET_NO":"999","TIME_SYSTEM":"UTC","EPHEMERIS_TYPE":"0","CENTER_NAME":"EARTH"}];
